NORAD_CAT_ID,OBJECT_NAME,OBJECT_TYPE,EPOCH,MEAN_MOTION,ECCENTRICITY,INCLINATION,RA_OF_ASC_NODE,ARG_OF_PERICENTER,MEAN_ANOMALY,BSTAR,MEAN_MOTION_DOT,MEAN_MOTION_DDOT,TLE_LINE0,TLE_LINE1,TLE_LINE2,SEMIMAJOR_AXIS,PERIOD,APOGEE,PERIGEE,DECAYED
51740.0,STARLINK-3500,PAYLOAD,2022-03-07 06:00:00,15.73183521,0.0001556,53.2184,71.9838,66.0597,52.5107,-0.00084158,-0.00117023,0.0,0 STARLINK-3500,1 51740U 22016AC  22066.25001157 -.00117023  00000-0 -84158-3 0  9990,2 51740  53.2184  71.9838 0001556  66.0597  52.5107 15.73183521  3366,6727.941999999999,91.534,350.85400000000016,348.76,0.0
51740.0,STARLINK-3500,PAYLOAD,2022-03-07 12:00:00,15.73083171,0.0001547,53.2185,70.7475,61.7982,33.4303,0.00053307,0.00074484,0.0,0 STARLINK-3500,1 51740U 22016AC  22066.50001157  .00074484  00000-0  53307-3 0  9991,2 51740  53.2185  70.7475 0001547  61.7982  33.4303 15.73083171  3402,6728.228,91.54,351.134,349.052,0.0
51740.0,STARLINK-3500,PAYLOAD,2022-03-07 22:00:00,15.73107598,0.0001464,53.2187,68.6837,71.0445,225.2046,0.00068896,0.00096807,0.0,0 STARLINK-3500,1 51740U 22016AC  22066.91667824  .00096807  00000-0  68896-3 0  9997,2 51740  53.2187  68.6837 0001464  71.0445 225.2046 15.73107598  3470,6728.159000000002,91.539,351.009,349.039,0.0
51740.0,STARLINK-3500,PAYLOAD,2022-03-08 14:00:01,15.73222746,0.0001569,53.2181,65.3868,65.6194,48.4055,0.00021934,0.00030304,0.0,0 STARLINK-3500,1 51740U 22016AC  22067.58334491  .00030304  00000-0  21934-3 0  9994,2 51740  53.2181  65.3868 0001569  65.6194  48.4055 15.73222746  3577,6727.83,91.532,350.751,348.64,0.0
51740.0,STARLINK-3500,PAYLOAD,2022-03-08 22:00:00,15.73259979,0.0001309,53.2183,63.7357,76.8794,126.103,-0.00028791,-0.00040934,0.0,0 STARLINK-3500,1 51740U 22016AC  22067.91667824 -.00040934  00000-0 -28791-3 0  9990,2 51740  53.2183  63.7357 0001309  76.8794 126.1030 15.73259979  3100,6727.724,91.53,350.47,348.709,0.0
51740.0,STARLINK-3500,PAYLOAD,2022-03-09 06:00:00,15.73200995,0.0001208,53.2185,62.0883,63.2723,228.702,-0.00021321,-0.00030435,0.0,0 STARLINK-3500,1 51740U 22016AC  22068.25001157 -.00030435  00000-0 -21321-3 0  9996,2 51740  53.2185  62.0883 0001208  63.2723 228.7020 15.73200995  3683,6727.892,91.533,350.57,348.945,0.0
51740.0,STARLINK-3500,PAYLOAD,2022-03-09 14:00:01,15.73208202,0.0001111,53.2187,60.4386,58.279,322.6069,0.00018139,0.00024921,0.0,0 STARLINK-3500,1 51740U 22016AC  22068.58334491  .00024921  00000-0  18139-3 0  9996,2 51740  53.2187  60.4386 0001111  58.2790 322.6069 15.73208202  3200,6727.871999999999,91.533,350.4840000000001,348.98900000000015,0.0
51740.0,STARLINK-3500,PAYLOAD,2022-03-09 16:00:00,15.73216681,0.0001085,53.2189,60.0256,62.8925,70.2243,0.00012521,0.00017,0.0,0 STARLINK-3500,1 51740U 22016AC  22068.66667824  .00017000  00000-0  12521-3 0  9993,2 51740  53.2189  60.0256 0001085  62.8925  70.2243 15.73216681  3744,6727.848000000001,91.532,350.4430000000001,348.983,0.0
51740.0,STARLINK-3500,PAYLOAD,2022-03-09 22:00:01,15.73249245,0.0001168,53.2189,58.7875,71.7621,38.1298,-0.00015615,-0.00022522,0.0,0 STARLINK-3500,1 51740U 22016AC  22068.91668981 -.00022522  00000-0 -15615-3 0  9990,2 51740  53.2189  58.7875 0001168  71.7621  38.1298 15.73249245  3261,6727.755,91.53,350.406,348.834,0.0
51740.0,STARLINK-3500,PAYLOAD,2022-03-10 06:00:00,15.73232136,0.000132,53.2186,57.1401,64.0444,134.7579,-0.00066073,-0.00092463,0.0,0 STARLINK-3500,1 51740U 22016AC  22069.25001157 -.00092463  00000-0 -66073-3 0  9999,2 51740  53.2186  57.1401 0001320  64.0444 134.7579 15.73232136  3844,6727.804,91.531,350.557,348.78,0.0
51740.0,STARLINK-3500,PAYLOAD,2022-03-10 14:00:01,15.73178449,0.0001124,53.2181,55.4902,63.4342,224.2922,0.00010482,0.00014102,0.0,0 STARLINK-3500,1 51740U 22016AC  22069.58334491  .00014102  00000-0  10482-3 0  9990,2 51740  53.2181  55.4902 0001124  63.4342 224.2922 15.73178449  3368,6727.956999999999,91.534,350.57800000000015,349.065,0.0
51740.0,STARLINK-3500,PAYLOAD,2022-03-10 20:00:01,15.73170478,9.73e-05,53.2182,54.2518,75.4042,189.0111,0.00069573,0.00098042,0.0,0 STARLINK-3500,1 51740U 22016AC  22069.83334491  .00098042  00000-0  69573-3 0  9998,2 51740  53.2182  54.2518 0000973  75.4042 189.0111 15.73170478  3935,6727.979,91.535,350.499,349.19,0.0
51740.0,STARLINK-3500,PAYLOAD,2022-03-10 22:00:01,15.73202802,0.0001007,53.2184,53.8394,77.018,299.6852,0.00038502,0.00053767,0.0,0 STARLINK-3500,1 51740U 22016AC  22069.91668981  .00053767  00000-0  38502-3 0  9994,2 51740  53.2184  53.8394 0001007  77.0180 299.6852 15.73202802  3425,6727.887,91.533,350.43,349.075,0.0
51740.0,STARLINK-3500,PAYLOAD,2022-03-11 04:00:00,15.73252716,9.8e-05,53.2185,52.6039,68.9671,284.383,-0.0004846,-0.00068231,0.0,0 STARLINK-3500,1 51740U 22016AC  22070.16667824 -.00068231  00000-0 -48460-3 0  9996,2 51740  53.2185  52.6039 0000980  68.9671 284.3830 15.73252716  3989,6727.745,91.53,350.269,348.951,0.0
51740.0,STARLINK-3500,PAYLOAD,2022-03-11 12:00:00,15.73261969,0.0001013,53.2184,50.9548,59.4885,22.8292,-0.00035093,-0.00049709,0.0,0 STARLINK-3500,1 51740U 22016AC  22070.50001157 -.00049709  00000-0 -35093-3 0  9992,2 51740  53.2184  50.9548 0001013  59.4885  22.8292 15.73261969  4038,6727.719,91.53,350.265,348.902,0.0
51740.0,STARLINK-3500,PAYLOAD,2022-03-11 22:00:00,15.72717869,0.0001149,53.2177,48.8823,65.1139,218.5105,0.0043301,0.00642697,0.0,0 STARLINK-3500,1 51740U 22016AC  22070.91667824  .00642697  00000-0  43301-2 0  9999,2 51740  53.2177  48.8823 0001149  65.1139 218.5105 15.72717869  4107,6729.27,91.561,351.908,350.362,0.0
51740.0,STARLINK-3500,PAYLOAD,2022-03-12 06:00:00,15.7321737,0.0001107,53.2186,47.2437,66.2938,306.1682,-0.00028429,-0.00040355,0.0,0 STARLINK-3500,1 51740U 22016AC  22071.25001157 -.00040355  00000-0 -28429-3 0  9998,2 51740  53.2186  47.2437 0001107  66.2938 306.1682 15.73217370  4156,6727.846,91.532,350.455,348.966,0.0
51740.0,STARLINK-3500,PAYLOAD,2022-03-12 14:00:01,15.73248097,0.0001206,53.2179,45.5933,73.4665,27.9244,-0.00041696,-0.00058849,0.0,0 STARLINK-3500,1 51740U 22016AC  22071.58334491 -.00058849  00000-0 -41696-3 0  9992,2 51740  53.2179  45.5933 0001206  73.4665  27.9244 15.73248097  4205,6727.7580000000025,91.53,350.434,348.81199999999984,0.0
51740.0,STARLINK-3500,PAYLOAD,2022-03-12 22:00:00,15.73183497,0.0001257,53.2183,43.9428,87.4995,102.8422,0.00050489,0.00070786,0.0,0 STARLINK-3500,1 51740U 22016AC  22071.91667824  .00070786  00000-0  50489-3 0  9990,2 51740  53.2183  43.9428 0001257  87.4995 102.8422 15.73183497  3705,6727.941999999999,91.534,350.653,348.962,0.0
51740.0,STARLINK-3500,PAYLOAD,2022-03-13 06:00:00,15.732289000000002,0.0001264,53.2184,42.2954,75.693,203.588,-0.0005417999999999,-0.00076067,0.0,0 STARLINK-3500,1 51740U 22016AC  22072.25001157 -.00076067  00000-0 -54180-3 0  9991,2 51740  53.2184  42.2954 0001264  75.6930 203.5880 15.73228900  4312,6727.813,91.531,350.528,348.827,0.0
51740.0,STARLINK-3500,PAYLOAD,2022-03-13 14:00:01,15.7318416,0.0001099,53.2185,40.6449,78.2139,289.9849,-0.00063076,-0.00088159,0.0,0 STARLINK-3500,1 51740U 22016AC  22072.58334491 -.00088159  00000-0 -63076-3 0  9996,2 51740  53.2185  40.6449 0001099  78.2139 289.9849 15.73184160  3715,6727.94,91.534,350.545,349.066,0.0
51740.0,STARLINK-3500,PAYLOAD,2022-03-13 20:00:01,15.72944906,0.0001361,53.2176,39.3984,91.5445,253.4624,0.00039755,0.00054932,0.0,0 STARLINK-3500,1 51740U 22016AC  22072.83334491  .00054932  00000-0  39755-3 0  9991,2 51740  53.2176  39.3984 0001361  91.5445 253.4624 15.72944906  4409,6728.623000000001,91.548,351.403,349.57199999999995,0.0
51740.0,STARLINK-3500,PAYLOAD,2022-03-13 22:00:01,15.72677467,0.0001142,53.2177,38.9849,88.7208,8.5992,0.0047441,0.00708679,0.0,0 STARLINK-3500,1 51740U 22016AC  22072.91668981  .00708679  00000-0  47441-2 0  9998,2 51740  53.2177  38.9849 0001142  88.7208   8.5992 15.72677467  3712,6729.385,91.564,352.019,350.482,0.0
51740.0,STARLINK-3500,PAYLOAD,2022-03-14 04:00:00,15.73265947,0.0001283,53.2185,37.7589,78.1928,355.6756,-0.00032258,-0.00045774,0.0,0 STARLINK-3500,1 51740U 22016AC  22073.16667824 -.00045774  00000-0 -32258-3 0  9994,2 51740  53.2185  37.7589 0001283  78.1928 355.6756 15.73265947  4450,6727.706999999999,91.529,350.435,348.709,0.0
51740.0,STARLINK-3500,PAYLOAD,2022-03-14 12:00:00,15.73268748,0.0001048,53.218,36.109,79.7777,83.0707,-0.00025857,-0.00036855,0.0,0 STARLINK-3500,1 51740U 22016AC  22073.50001157 -.00036855  00000-0 -25857-3 0  9990,2 51740  53.2180  36.1090 0001048  79.7777  83.0707 15.73268748  4510,6727.699000000001,91.529,350.269,348.8590000000001,0.0
51740.0,STARLINK-3500,PAYLOAD,2022-03-14 14:00:01,15.73303623,9.68e-05,53.218,35.6958,85.5538,189.6352,-0.00035056,-0.00049745,0.0,0 STARLINK-3500,1 51740U 22016AC  22073.58335648 -.00049745  00000-0 -35056-3 0  9997,2 51740  53.2180  35.6958 0000968  85.5538 189.6352 15.73303623  3674,6727.6,91.527,350.116,348.814,0.0
51740.0,STARLINK-3500,PAYLOAD,2022-03-14 20:00:01,15.73253785,8.840000000000001e-05,53.2182,34.4577,99.1159,152.7886,0.00065888,0.00093094,0.0,0 STARLINK-3500,1 51740U 22016AC  22073.83334491  .00093094  00000-0  65888-3 0  9990,2 51740  53.2182  34.4577 0000884  99.1159 152.7886 15.73253785  4562,6727.7419999999975,91.53,350.202,349.01199999999994,0.0
51740.0,STARLINK-3500,PAYLOAD,2022-03-14 22:00:00,15.73275227,8.859999999999999e-05,53.2184,34.0457,93.3309,270.7751,-0.000119,-0.00017339,0.0,0 STARLINK-3500,1 51740U 22016AC  22073.91667824 -.00017339  00000-0 -11900-3 0  9994,2 51740  53.2184  34.0457 0000886  93.3309 270.7751 15.73275227  4570,6727.681,91.529,350.142,348.95,0.0
51740.0,STARLINK-3500,PAYLOAD,2022-03-15 02:00:01,15.73324615,8.65e-05,53.2184,33.2221,86.1506,142.4534,-0.0013517999999999,-0.00187161,0.0,0 STARLINK-3500,1 51740U 22016AC  22074.08334491 -.00187161  00000-0 -13518-2 0  9991,2 51740  53.2184  33.2221 0000865  86.1506 142.4534 15.73324615  4600,6727.54,91.526,349.987,348.8230000000001,0.0
